{
  "type": "FeatureCollection",
  "features": [
    {
      "type": "Feature",
      "properties": {
        "norad_id": 31281,
        "name": "FENGYUN 1C DEB",
        "group": "fengyun-1c-debris",
        "lat": 63.014658224862515,
        "lon": -50.79403439564106,
        "alt_km": 430.9952386269224,
        "timestamp": "2025-12-04T03:47:54.824669+00:00",
        "meta_object_name": "FENGYUN 1C DEB",
        "meta_object_id": "1999-025BNP",
        "meta_epoch": "2025-12-03T08:17:28.646016",
        "meta_mean_motion": 15.16437534,
        "meta_eccentricity": 0.0115529,
        "meta_inclination": 98.3826,
        "meta_ra_of_asc_node": 111.4749,
        "meta_arg_of_pericenter": 123.7833,
        "meta_mean_anomaly": 237.4465,
        "meta_ephemeris_type": 0,
        "meta_classification_type": "U",
        "meta_norad_cat_id": 31281,
        "meta_element_set_no": 999,
        "meta_rev_at_epoch": 99589,
        "meta_bstar": 0.0019531,
        "meta_mean_motion_dot": 0.0004524,
        "meta_mean_motion_ddot": 0,
        "tle_line1": "1 31281U 99025BNP 25337.34547044  .00045240  00000+0  19531-2 0  9996",
        "tle_line2": "2 31281  98.3826 111.4749 0115529 123.7833 237.4465 15.16437534995890"
      },
      "geometry": {
        "type": "Point",
        "coordinates": [
          -50.79403439564106,
          63.014658224862515
        ]
      }
    },
    {
      "type": "Feature",
      "properties": {
        "norad_id": 31282,
        "name": "FENGYUN 1C DEB",
        "group": "fengyun-1c-debris",
        "lat": -56.19999867985018,
        "lon": 60.692320895687686,
        "alt_km": 729.1441342825547,
        "timestamp": "2025-12-04T03:47:54.824680+00:00",
        "meta_object_name": "FENGYUN 1C DEB",
        "meta_object_id": "1999-025BNQ",
        "meta_epoch": "2025-12-03T00:04:23.333376",
        "meta_mean_motion": 14.43434329,
        "meta_eccentricity": 0.01274126,
        "meta_inclination": 99.2158,
        "meta_ra_of_asc_node": 253.4782,
        "meta_arg_of_pericenter": 315.3681,
        "meta_mean_anomaly": 43.7304,
        "meta_ephemeris_type": 0,
        "meta_classification_type": "U",
        "meta_norad_cat_id": 31282,
        "meta_element_set_no": 999,
        "meta_rev_at_epoch": 96980,
        "meta_bstar": 0.00039776103,
        "meta_mean_motion_dot": 1.425e-05,
        "meta_mean_motion_ddot": 0,
        "tle_line1": "1 31282U 99025BNQ 25337.00304784  .00001425  00000+0  39776-3 0  9993",
        "tle_line2": "2 31282  99.2158 253.4782 0127412 315.3681  43.7304 14.43434329969807"
      },
      "geometry": {
        "type": "Point",
        "coordinates": [
          60.692320895687686,
          -56.19999867985018
        ]
      }
    },
    {
      "type": "Feature",
      "properties": {
        "norad_id": 31284,
        "name": "FENGYUN 1C DEB",
        "group": "fengyun-1c-debris",
        "lat": 50.81231508448942,
        "lon": -95.80784475240887,
        "alt_km": 823.3103183977264,
        "timestamp": "2025-12-04T03:47:54.824690+00:00",
        "meta_object_name": "FENGYUN 1C DEB",
        "meta_object_id": "1999-025BNS",
        "meta_epoch": "2025-12-02T01:23:04.816032",
        "meta_mean_motion": 13.97865027,
        "meta_eccentricity": 0.01435863,
        "meta_inclination": 99.7231,
        "meta_ra_of_asc_node": 69.8278,
        "meta_arg_of_pericenter": 87.5122,
        "meta_mean_anomaly": 274.2468,
        "meta_ephemeris_type": 0,
        "meta_classification_type": "U",
        "meta_norad_cat_id": 31284,
        "meta_element_set_no": 999,
        "meta_rev_at_epoch": 95013,
        "meta_bstar": 0.0010277113,
        "meta_mean_motion_dot": 1.541e-05,
        "meta_mean_motion_ddot": 0,
        "tle_line1": "1 31284U 99025BNS 25336.05769463  .00001541  00000+0  10277-2 0  9991",
        "tle_line2": "2 31284  99.7231  69.8278 0143586  87.5122 274.2468 13.97865027950132"
      },
      "geometry": {
        "type": "Point",
        "coordinates": [
          -95.80784475240887,
          50.81231508448942
        ]
      }
    },
    {
      "type": "Feature",
      "properties": {
        "norad_id": 31285,
        "name": "FENGYUN 1C DEB",
        "group": "fengyun-1c-debris",
        "lat": -32.29223006502805,
        "lon": -35.761432528282995,
        "alt_km": 870.0754215653296,
        "timestamp": "2025-12-04T03:47:54.824719+00:00",
        "meta_object_name": "FENGYUN 1C DEB",
        "meta_object_id": "1999-025BNT",
        "meta_epoch": "2025-12-03T10:11:52.166976",
        "meta_mean_motion": 14.26023476,
        "meta_eccentricity": 0.0199182,
        "meta_inclination": 98.5186,
        "meta_ra_of_asc_node": 318.0898,
        "meta_arg_of_pericenter": 214.1803,
        "meta_mean_anomaly": 308.4364,
        "meta_ephemeris_type": 0,
        "meta_classification_type": "U",
        "meta_norad_cat_id": 31285,
        "meta_element_set_no": 999,
        "meta_rev_at_epoch": 97166,
        "meta_bstar": 0.00028333,
        "meta_mean_motion_dot": 7.86e-06,
        "meta_mean_motion_ddot": 0,
        "tle_line1": "1 31285U 99025BNT 25337.42490934  .00000786  00000+0  28333-3 0  9991",
        "tle_line2": "2 31285  98.5186 318.0898 0199182 214.1803 308.4364 14.26023476971666"
      },
      "geometry": {
        "type": "Point",
        "coordinates": [
          -35.761432528282995,
          -32.29223006502805
        ]
      }
    },
    {
      "type": "Feature",
      "properties": {
        "norad_id": 31286,
        "name": "FENGYUN 1C DEB",
        "group": "fengyun-1c-debris",
        "lat": -11.235494267045924,
        "lon": 44.6083857580272,
        "alt_km": 840.9814350453389,
        "timestamp": "2025-12-04T03:47:54.824731+00:00",
        "meta_object_name": "FENGYUN 1C DEB",
        "meta_object_id": "1999-025BNU",
        "meta_epoch": "2025-11-25T09:34:29.686080",
        "meta_mean_motion": 14.22413648,
        "meta_eccentricity": 0.00824978,
        "meta_inclination": 100.8568,
        "meta_ra_of_asc_node": 216.0258,
        "meta_arg_of_pericenter": 325.142,
        "meta_mean_anomaly": 34.4364,
        "meta_ephemeris_type": 0,
        "meta_classification_type": "U",
        "meta_norad_cat_id": 31286,
        "meta_element_set_no": 999,
        "meta_rev_at_epoch": 63773,
        "meta_bstar": 0.0038156111,
        "meta_mean_motion_dot": 8.748e-05,
        "meta_mean_motion_ddot": 0,
        "tle_line1": "1 31286U 99025BNU 25329.39895470  .00008748  00000+0  38156-2 0  9992",
        "tle_line2": "2 31286 100.8568 216.0258 0082497 325.1420  34.4364 14.22413648637736"
      },
      "geometry": {
        "type": "Point",
        "coordinates": [
          44.6083857580272,
          -11.235494267045924
        ]
      }
    },
    {
      "type": "Feature",
      "properties": {
        "norad_id": 31287,
        "name": "FENGYUN 1C DEB",
        "group": "fengyun-1c-debris",
        "lat": 76.54512677133506,
        "lon": -10.437794804105124,
        "alt_km": 771.0690372553936,
        "timestamp": "2025-12-04T03:47:54.824741+00:00",
        "meta_object_name": "FENGYUN 1C DEB",
        "meta_object_id": "1999-025BNV",
        "meta_epoch": "2025-12-01T09:50:16.615392",
        "meta_mean_motion": 14.27891237,
        "meta_eccentricity": 0.00285984,
        "meta_inclination": 99.4087,
        "meta_ra_of_asc_node": 30.4771,
        "meta_arg_of_pericenter": 95.3474,
        "meta_mean_anomaly": 265.0968,
        "meta_ephemeris_type": 0,
        "meta_classification_type": "U",
        "meta_norad_cat_id": 31287,
        "meta_element_set_no": 999,
        "meta_rev_at_epoch": 96524,
        "meta_bstar": 0.0017630055,
        "meta_mean_motion_dot": 4.336e-05,
        "meta_mean_motion_ddot": 0,
        "tle_line1": "1 31287U 99025BNV 25335.40991453  .00004336  00000+0  17630-2 0  9993",
        "tle_line2": "2 31287  99.4087  30.4771 0028598  95.3474 265.0968 14.27891237965242"
      },
      "geometry": {
        "type": "Point",
        "coordinates": [
          -10.437794804105124,
          76.54512677133506
        ]
      }
    },
    {
      "type": "Feature",
      "properties": {
        "norad_id": 31288,
        "name": "FENGYUN 1C DEB",
        "group": "fengyun-1c-debris",
        "lat": -43.54435163833084,
        "lon": 143.63921906757514,
        "alt_km": 576.6933735251405,
        "timestamp": "2025-12-04T03:47:54.824751+00:00",
        "meta_object_name": "FENGYUN 1C DEB",
        "meta_object_id": "1999-025BNW",
        "meta_epoch": "2025-12-01T23:30:55.588320",
        "meta_mean_motion": 14.93648096,
        "meta_eccentricity": 0.0022598,
        "meta_inclination": 98.7492,
        "meta_ra_of_asc_node": 132.7992,
        "meta_arg_of_pericenter": 325.0003,
        "meta_mean_anomaly": 163.0145,
        "meta_ephemeris_type": 0,
        "meta_classification_type": "U",
        "meta_norad_cat_id": 31288,
        "meta_element_set_no": 999,
        "meta_rev_at_epoch": 97396,
        "meta_bstar": 0.0058505226,
        "meta_mean_motion_dot": 0.00062582,
        "meta_mean_motion_ddot": 0,
        "tle_line1": "1 31288U 99025BNW 25335.97981005  .00062582  00000+0  58505-2 0  9991",
        "tle_line2": "2 31288  98.7492 132.7992 0022598 325.0003 163.0145 14.93648096973969"
      },
      "geometry": {
        "type": "Point",
        "coordinates": [
          143.63921906757514,
          -43.54435163833084
        ]
      }
    }
  ]
}